[{"OBJECT_NAME":"STARLINK-2637","OBJECT_ID":"2021-038D","EPOCH":"2025-07-27T14:36:39.485376","MEAN_MOTION":15.06388384,"ECCENTRICITY":0.0001325,"INCLINATION":53.0553,"RA_OF_ASC_NODE":292.0479,"ARG_OF_PERICENTER":86.2959,"MEAN_ANOMALY":273.8182,"EPHEMERIS_TYPE":0,"CLASSIFICATION_TYPE":"U","NORAD_CAT_ID":48356,"ELEMENT_SET_NO":999,"REV_AT_EPOCH":23310,"BSTAR":0.00016694,"MEAN_MOTION_DOT":2.205e-5,"MEAN_MOTION_DDOT":0},{"OBJECT_NAME":"STARLINK-2636","OBJECT_ID":"2021-038E","EPOCH":"2025-07-27T12:18:43.967232","MEAN_MOTION":15.06399741,"ECCENTRICITY":0.0001293,"INCLINATION":53.0545,"RA_OF_ASC_NODE":292.9014,"ARG_OF_PERICENTER":88.1854,"MEAN_ANOMALY":271.9283,"EPHEMERIS_TYPE":0,"CLASSIFICATION_TYPE":"U","NORAD_CAT_ID":48357,"ELEMENT_SET_NO":999,"REV_AT_EPOCH":23308,"BSTAR":0.00034963,"MEAN_MOTION_DOT":4.93e-5,"MEAN_MOTION_DDOT":0},{"OBJECT_NAME":"STARLINK-2624","OBJECT_ID":"2021-038F","EPOCH":"2025-07-27T12:50:30.134400","MEAN_MOTION":15.06394481,"ECCENTRICITY":0.0001314,"INCLINATION":53.0563,"RA_OF_ASC_NODE":292.3785,"ARG_OF_PERICENTER":92.0116,"MEAN_ANOMALY":268.1023,"EPHEMERIS_TYPE":0,"CLASSIFICATION_TYPE":"U","NORAD_CAT_ID":48358,"ELEMENT_SET_NO":999,"REV_AT_EPOCH":23308,"BSTAR":0.00013875,"MEAN_MOTION_DOT":1.786e-5,"MEAN_MOTION_DDOT":0},{"OBJECT_NAME":"STARLINK-2628","OBJECT_ID":"2021-038G","EPOCH":"2025-07-27T12:45:09.734688","MEAN_MOTION":15.06387357,"ECCENTRICITY":0.0001275,"INCLINATION":53.055,"RA_OF_ASC_NODE":292.3955,"ARG_OF_PERICENTER":89.0044,"MEAN_ANOMALY":271.1091,"EPHEMERIS_TYPE":0,"CLASSIFICATION_TYPE":"U","NORAD_CAT_ID":48359,"ELEMENT_SET_NO":999,"REV_AT_EPOCH":23308,"BSTAR":-0.00085164,"MEAN_MOTION_DOT":-0.00012939,"MEAN_MOTION_DDOT":0},{"OBJECT_NAME":"STARLINK-2622","OBJECT_ID":"2021-038H","EPOCH":"2025-07-27T12:39:53.469216","MEAN_MOTION":15.06388156,"ECCENTRICITY":0.0001356,"INCLINATION":53.054,"RA_OF_ASC_NODE":292.4151,"ARG_OF_PERICENTER":90.1453,"MEAN_ANOMALY":269.9691,"EPHEMERIS_TYPE":0,"CLASSIFICATION_TYPE":"U","NORAD_CAT_ID":48360,"ELEMENT_SET_NO":999,"REV_AT_EPOCH":23308,"BSTAR":0.00020758,"MEAN_MOTION_DOT":2.811e-5,"MEAN_MOTION_DDOT":0},{"OBJECT_NAME":"STARLINK-2591","OBJECT_ID":"2021-038J","EPOCH":"2025-07-27T12:34:35.077440","MEAN_MOTION":15.06390957,"ECCENTRICITY":0.0001283,"INCLINATION":53.0552,"RA_OF_ASC_NODE":292.4313,"ARG_OF_PERICENTER":87.6573,"MEAN_ANOMALY":272.4563,"EPHEMERIS_TYPE":0,"CLASSIFICATION_TYPE":"U","NORAD_CAT_ID":48361,"ELEMENT_SET_NO":999,"REV_AT_EPOCH":23308,"BSTAR":0.00020396,"MEAN_MOTION_DOT":2.757e-5,"MEAN_MOTION_DDOT":0},{"OBJECT_NAME":"STARLINK-2578","OBJECT_ID":"2021-038K","EPOCH":"2025-07-27T13:22:22.118880","MEAN_MOTION":15.06389035,"ECCENTRICITY":0.0001298,"INCLINATION":53.055,"RA_OF_ASC_NODE":292.3643,"ARG_OF_PERICENTER":91.0917,"MEAN_ANOMALY":269.0221,"EPHEMERIS_TYPE":0,"CLASSIFICATION_TYPE":"U","NORAD_CAT_ID":48362,"ELEMENT_SET_NO":999,"REV_AT_EPOCH":23368,"BSTAR":0.00025239,"MEAN_MOTION_DOT":3.479e-5,"MEAN_MOTION_DDOT":0},{"OBJECT_NAME":"STARLINK-2626","OBJECT_ID":"2021-038L","EPOCH":"2025-07-27T19:57:09.319968","MEAN_MOTION":15.41642467,"ECCENTRICITY":0.0003601,"INCLINATION":53.0591,"RA_OF_ASC_NODE":248.9492,"ARG_OF_PERICENTER":25.9096,"MEAN_ANOMALY":334.2088,"EPHEMERIS_TYPE":0,"CLASSIFICATION_TYPE":"U","NORAD_CAT_ID":48363,"ELEMENT_SET_NO":999,"REV_AT_EPOCH":23431,"BSTAR":0.00085292,"MEAN_MOTION_DOT":0.00036251,"MEAN_MOTION_DDOT":0},{"OBJECT_NAME":"STARLINK-2611","OBJECT_ID":"2021-038M","EPOCH":"2025-07-27T12:16:41.140992","MEAN_MOTION":15.0639062,"ECCENTRICITY":0.0001271,"INCLINATION":53.0545,"RA_OF_ASC_NODE":287.6506,"ARG_OF_PERICENTER":89.1777,"MEAN_ANOMALY":270.9358,"EPHEMERIS_TYPE":0,"CLASSIFICATION_TYPE":"U","NORAD_CAT_ID":48364,"ELEMENT_SET_NO":999,"REV_AT_EPOCH":23315,"BSTAR":9.7489e-5,"MEAN_MOTION_DOT":1.171e-5,"MEAN_MOTION_DDOT":0},{"OBJECT_NAME":"STARLINK-2608","OBJECT_ID":"2021-038N","EPOCH":"2025-07-27T12:59:08.042784","MEAN_MOTION":15.06382815,"ECCENTRICITY":0.0001392,"INCLINATION":53.055,"RA_OF_ASC_NODE":287.3503,"ARG_OF_PERICENTER":92.971,"MEAN_ANOMALY":267.1438,"EPHEMERIS_TYPE":0,"CLASSIFICATION_TYPE":"U","NORAD_CAT_ID":48365,"ELEMENT_SET_NO":999,"REV_AT_EPOCH":23316,"BSTAR":0.0001415,"MEAN_MOTION_DOT":1.826e-5,"MEAN_MOTION_DDOT":0},{"OBJECT_NAME":"STARLINK-2631","OBJECT_ID":"2021-038P","EPOCH":"2025-07-27T22:00:01.999584","MEAN_MOTION":15.91373373,"ECCENTRICITY":0.0008495,"INCLINATION":53.0426,"RA_OF_ASC_NODE":258.3876,"ARG_OF_PERICENTER":2.8859,"MEAN_ANOMALY":356.852,"EPHEMERIS_TYPE":0,"CLASSIFICATION_TYPE":"U","NORAD_CAT_ID":48366,"ELEMENT_SET_NO":999,"REV_AT_EPOCH":23417,"BSTAR":0.00099276,"MEAN_MOTION_DOT":0.00324377,"MEAN_MOTION_DDOT":5.0554e-5},{"OBJECT_NAME":"STARLINK-2643","OBJECT_ID":"2021-038Q","EPOCH":"2025-07-27T12:35:53.604672","MEAN_MOTION":15.06407233,"ECCENTRICITY":0.0001099,"INCLINATION":53.0552,"RA_OF_ASC_NODE":282.4224,"ARG_OF_PERICENTER":96.8296,"MEAN_ANOMALY":263.2818,"EPHEMERIS_TYPE":0,"CLASSIFICATION_TYPE":"U","NORAD_CAT_ID":48367,"ELEMENT_SET_NO":999,"REV_AT_EPOCH":23322,"BSTAR":0.00011696,"MEAN_MOTION_DOT":1.462e-5,"MEAN_MOTION_DDOT":0},{"OBJECT_NAME":"STARLINK-2623","OBJECT_ID":"2021-038R","EPOCH":"2025-07-27T12:04:05.559168","MEAN_MOTION":15.06402225,"ECCENTRICITY":0.000127,"INCLINATION":53.0547,"RA_OF_ASC_NODE":282.8075,"ARG_OF_PERICENTER":92.9407,"MEAN_ANOMALY":267.1727,"EPHEMERIS_TYPE":0,"CLASSIFICATION_TYPE":"U","NORAD_CAT_ID":48368,"ELEMENT_SET_NO":999,"REV_AT_EPOCH":23322,"BSTAR":8.7632e-5,"MEAN_MOTION_DOT":1.024e-5,"MEAN_MOTION_DDOT":0},{"OBJECT_NAME":"STARLINK-2621","OBJECT_ID":"2021-038T","EPOCH":"2025-07-27T14:00:49.423104","MEAN_MOTION":15.06404037,"ECCENTRICITY":0.000138,"INCLINATION":53.0565,"RA_OF_ASC_NODE":282.1591,"ARG_OF_PERICENTER":92.5548,"MEAN_ANOMALY":267.5599,"EPHEMERIS_TYPE":0,"CLASSIFICATION_TYPE":"U","NORAD_CAT_ID":48370,"ELEMENT_SET_NO":999,"REV_AT_EPOCH":23323,"BSTAR":0.00010262,"MEAN_MOTION_DOT":1.248e-5,"MEAN_MOTION_DDOT":0},{"OBJECT_NAME":"STARLINK-2589","OBJECT_ID":"2021-038U","EPOCH":"2025-07-27T13:55:30.815328","MEAN_MOTION":15.06402737,"ECCENTRICITY":0.0001822,"INCLINATION":53.0544,"RA_OF_ASC_NODE":282.1761,"ARG_OF_PERICENTER":102.4257,"MEAN_ANOMALY":257.6936,"EPHEMERIS_TYPE":0,"CLASSIFICATION_TYPE":"U","NORAD_CAT_ID":48371,"ELEMENT_SET_NO":999,"REV_AT_EPOCH":23323,"BSTAR":0.00013373,"MEAN_MOTION_DOT":1.711e-5,"MEAN_MOTION_DDOT":0},{"OBJECT_NAME":"STARLINK-2609","OBJECT_ID":"2021-038W","EPOCH":"2025-07-27T12:09:21.301920","MEAN_MOTION":15.06399736,"ECCENTRICITY":0.0001198,"INCLINATION":53.055,"RA_OF_ASC_NODE":282.5034,"ARG_OF_PERICENTER":90.7161,"MEAN_ANOMALY":269.3965,"EPHEMERIS_TYPE":0,"CLASSIFICATION_TYPE":"U","NORAD_CAT_ID":48373,"ELEMENT_SET_NO":999,"REV_AT_EPOCH":23322,"BSTAR":0.00011835,"MEAN_MOTION_DOT":1.482e-5,"MEAN_MOTION_DDOT":0},{"OBJECT_NAME":"STARLINK-2604","OBJECT_ID":"2021-038X","EPOCH":"2025-07-27T11:16:19.924320","MEAN_MOTION":15.06404787,"ECCENTRICITY":0.0001023,"INCLINATION":53.0556,"RA_OF_ASC_NODE":283.0174,"ARG_OF_PERICENTER":97.8724,"MEAN_ANOMALY":262.2381,"EPHEMERIS_TYPE":0,"CLASSIFICATION_TYPE":"U","NORAD_CAT_ID":48374,"ELEMENT_SET_NO":999,"REV_AT_EPOCH":23321,"BSTAR":4.5362e-5,"MEAN_MOTION_DOT":3.95e-6,"MEAN_MOTION_DDOT":0}]
