STARLINK-2637           
1 48356U 21038D   25208.60879034  .00002205  00000+0  16694-3 0  9991
2 48356  53.0553 292.0479 0001325  86.2959 273.8182 15.06388384233108
STARLINK-2636           
1 48357U 21038E   25208.51300888  .00004930  00000+0  34963-3 0  9994
2 48357  53.0545 292.9014 0001293  88.1854 271.9283 15.06399741233080
STARLINK-2624           
1 48358U 21038F   25208.53507100  .00001786  00000+0  13875-3 0  9998
2 48358  53.0563 292.3785 0001314  92.0116 268.1023 15.06394481233085
STARLINK-2628           
1 48359U 21038G   25208.53136267 -.00012939  00000+0 -85164-3 0  9995
2 48359  53.0550 292.3955 0001275  89.0044 271.1091 15.06387357233086
STARLINK-2622           
1 48360U 21038H   25208.52770219  .00002811  00000+0  20758-3 0  9991
2 48360  53.0540 292.4151 0001356  90.1453 269.9691 15.06388156233082
STARLINK-2591           
1 48361U 21038J   25208.52401710  .00002757  00000+0  20396-3 0  9996
2 48361  53.0552 292.4313 0001283  87.6573 272.4563 15.06390957233088
STARLINK-2578           
1 48362U 21038K   25208.55720045  .00003479  00000+0  25239-3 0  9998
2 48362  53.0550 292.3643 0001298  91.0917 269.0221 15.06389035233683
STARLINK-2626           
1 48363U 21038L   25208.83135787  .00036251  00000+0  85292-3 0  9992
2 48363  53.0591 248.9492 0003601  25.9096 334.2088 15.41642467234319
STARLINK-2611           
1 48364U 21038M   25208.51158728  .00001171  00000+0  97489-4 0  9993
2 48364  53.0545 287.6506 0001271  89.1777 270.9358 15.06390620233153
STARLINK-2608           
1 48365U 21038N   25208.54106531  .00001826  00000+0  14150-3 0  9992
2 48365  53.0550 287.3503 0001392  92.9710 267.1438 15.06382815233162
STARLINK-2631           
1 48366U 21038P   25208.91668981  .00324377  50554-4  99276-3 0  9991
2 48366  53.0426 258.3876 0008495   2.8859 356.8520 15.91373373234174
STARLINK-2643           
1 48367U 21038Q   25208.52492598  .00001462  00000+0  11696-3 0  9991
2 48367  53.0552 282.4224 0001099  96.8296 263.2818 15.06407233233226
STARLINK-2623           
1 48368U 21038R   25208.50284212  .00001024  00000+0  87632-4 0  9990
2 48368  53.0547 282.8075 0001270  92.9407 267.1727 15.06402225233229
STARLINK-2621           
1 48370U 21038T   25208.58390536  .00001248  00000+0  10262-3 0  9990
2 48370  53.0565 282.1591 0001380  92.5548 267.5599 15.06404037233237
STARLINK-2589           
1 48371U 21038U   25208.58021777  .00001711  00000+0  13373-3 0  9990
2 48371  53.0544 282.1761 0001822 102.4257 257.6936 15.06402737233233
STARLINK-2609           
1 48373U 21038W   25208.50649655  .00001482  00000+0  11835-3 0  9991
2 48373  53.0550 282.5034 0001198  90.7161 269.3965 15.06399736233223
STARLINK-2604           
1 48374U 21038X   25208.46967505  .00000395  00000+0  45362-4 0  9999
2 48374  53.0556 283.0174 0001023  97.8724 262.2381 15.06404787233217
